[{"OBJECT_NAME":"STARLINK-30306","OBJECT_ID":"2023-122B","EPOCH":"2026-03-09T02:09:34.242624","MEAN_MOTION":15.26746046,"ECCENTRICITY":0.00014558,"INCLINATION":43.0009,"RA_OF_ASC_NODE":96.0257,"ARG_OF_PERICENTER":254.7696,"MEAN_ANOMALY":105.2994,"EPHEMERIS_TYPE":0,"CLASSIFICATION_TYPE":"U","NORAD_CAT_ID":57633,"ELEMENT_SET_NO":999,"REV_AT_EPOCH":14211,"BSTAR":7.8192912e-5,"MEAN_MOTION_DOT":1.839e-5,"MEAN_MOTION_DDOT":0},{"OBJECT_NAME":"TIANMU-1 16","OBJECT_ID":"2024-004B","EPOCH":"2026-03-09T23:11:35.492064","MEAN_MOTION":15.25874833,"ECCENTRICITY":0.00051977,"INCLINATION":97.4617,"RA_OF_ASC_NODE":254.5267,"ARG_OF_PERICENTER":355.4475,"MEAN_ANOMALY":4.6715,"EPHEMERIS_TYPE":0,"CLASSIFICATION_TYPE":"U","NORAD_CAT_ID":58701,"ELEMENT_SET_NO":999,"REV_AT_EPOCH":12064,"BSTAR":0.00031061517,"MEAN_MOTION_DOT":7.887e-5,"MEAN_MOTION_DDOT":0}]
